ONEWEB-0538             
1 56047U 23043B   23321.58334491  .00000014  00000+0  00000+0 0  9995
2 56047  87.8480  56.4329 0002686 187.3410 304.9325 13.44737375  5504
ONEWEB-0546             
1 56048U 23043C   23321.58334491  .00000014  00000+0  00000+0 0  9996
2 56048  87.8551  56.4088 0002974  79.3149 273.3788 13.43392983  5496
ONEWEB-0547             
1 56049U 23043D   23321.60124154  .00000039  00000+0  62933-4 0  9998
2 56049  87.9247  71.6222 0001450 118.9462 241.1817 13.21829040 33701
ONEWEB-0548             
1 56050U 23043E   23321.58334491  .00000014  00000+0  00000+0 0  9999
2 56050  87.8506  56.4476 0002869  59.6132 234.0941 13.43750631  5422
ONEWEB-0549             
1 56051U 23043F   23321.59336370  .00000095  00000+0  19797-3 0  9995
2 56051  87.9245  71.6247 0001543 100.4120 259.7188 13.21826813 33700
ONEWEB-0550             
1 56052U 23043G   23321.35365926 -.00000839  00000+0 -20634-2 0  9998
2 56052  87.9245  71.6843 0002904 102.8360 257.3099 13.21830001 33672
ONEWEB-0551             
1 56053U 23043H   23321.42463173 -.00000136  00000+0 -39638-3 0  9995
2 56053  87.8991  86.9122 0001319 103.5191 256.6086 13.15552695 32443
ONEWEB-0552             
1 56054U 23043J   23321.57443077  .00000151  00000+0  33315-3 0  9994
2 56054  87.9250  71.6521 0001466  87.0354 273.0947 13.21823684 33702
